NORAD_CAT_ID,OBJECT_NAME,OBJECT_TYPE,EPOCH,MEAN_MOTION,ECCENTRICITY,INCLINATION,RA_OF_ASC_NODE,ARG_OF_PERICENTER,MEAN_ANOMALY,BSTAR,MEAN_MOTION_DOT,MEAN_MOTION_DDOT,TLE_LINE0,TLE_LINE1,TLE_LINE2,SEMIMAJOR_AXIS,PERIOD,APOGEE,PERIGEE,DECAYED
55926.0,STARLINK-5921,PAYLOAD,2023-11-24 03:55:22,14.98317333,0.0002678,69.9995,233.7573,264.8373,95.2481,-7.2425e-05,-9.57e-06,0.0,0 STARLINK-5921,1 55926U 23037N   23328.16345258 -.00000957  00000-0 -72425-4 0  9991,2 55926  69.9995 233.7573 0002678 264.8373  95.2481 14.98317333 39016,6950.232,96.108,573.958,570.236,0.0
55926.0,STARLINK-5921,PAYLOAD,2023-11-24 19:56:42,14.98331373,0.0002747,69.9996,232.0722,272.7339,87.3506,-1.1567e-05,-2.31e-06,0.0,0 STARLINK-5921,1 55926U 23037N   23328.83104397 -.00000231  00000-0 -11567-4 0  9997,2 55926  69.9996 232.0722 0002747 272.7339  87.3506 14.98331373 39113,6950.189,96.107,573.963,570.144,0.0
55926.0,STARLINK-5921,PAYLOAD,2023-11-24 21:32:50,14.98332002,0.0002606,69.9997,231.9038,269.8625,90.2235,-2.4787e-06,-1.23e-06,0.0,0 STARLINK-5921,1 55926U 23037N   23328.89780328 -.00000123  00000-0 -24787-5 0  9996,2 55926  69.9997 231.9038 0002606 269.8625  90.2235 14.98332002 38785,6950.187,96.107,573.863,570.24,0.0
55926.0,STARLINK-5921,PAYLOAD,2023-11-25 03:57:21,14.98337503,0.0002141,70.0009,231.2307,253.4859,106.6065,6.943e-05,7.36e-06,0.0,0 STARLINK-5921,1 55926U 23037N   23329.16483688  .00000736  00000-0  69430-4 0  9997,2 55926  70.0009 231.2307 0002141 253.4859 106.6065 14.98337503 39163,6950.17,96.107,573.523,570.547,0.0
55926.0,STARLINK-5921,PAYLOAD,2023-11-25 21:34:50,14.98327739,0.0002206,70.0008,229.3795,258.9398,101.1513,0.00022982,2.65e-05,0.0,0 STARLINK-5921,1 55926U 23037N   23329.89919628  .00002650  00000-0  22982-3 0  9992,2 55926  70.0008 229.3795 0002206 258.9398 101.1513 14.98327739 38933,6950.2,96.107,573.598,570.532,0.0
55926.0,STARLINK-5921,PAYLOAD,2023-11-26 03:59:21,14.98345056,0.0002426,70.0004,228.7062,283.7021,76.3868,0.0003178,3.702e-05,0.0,0 STARLINK-5921,1 55926U 23037N   23330.16622425  .00003702  00000-0  31780-3 0  9995,2 55926  70.0004 228.7062 0002426 283.7021  76.3868 14.98345056 39313,6950.146,96.106,573.697,570.325,0.0
55926.0,STARLINK-5921,PAYLOAD,2023-11-26 20:00:45,14.98317128,0.0002983,69.9998,227.0223,271.3328,88.7489,-0.00022516,-2.778e-05,0.0,0 STARLINK-5921,1 55926U 23037N   23330.83385549 -.00002778  00000-0 -22516-3 0  9993,2 55926  69.9998 227.0223 0002983 271.3328  88.7489 14.98317128 39410,6950.233,96.108,574.171,570.024,0.0
55926.0,STARLINK-5921,PAYLOAD,2023-11-26 21:36:53,14.98311918,0.0002696,70.0,226.8544,261.3546,98.7307,-0.00027472,-3.368e-05,0.0,0 STARLINK-5921,1 55926U 23037N   23330.90061990 -.00003368  00000-0 -27472-3 0  9994,2 55926  70.0000 226.8544 0002696 261.3546  98.7307 14.98311918 39086,6950.249,96.108,573.988,570.24,0.0
55926.0,STARLINK-5921,PAYLOAD,2023-11-27 04:01:25,14.98312027,0.00025,70.0004,226.1818,256.8415,103.2466,-0.00023677,-2.915e-05,0.0,0 STARLINK-5921,1 55926U 23037N   23331.16766153 -.00002915  00000-0 -23677-3 0  9996,2 55926  70.0004 226.1818 0002500 256.8415 103.2466 14.98312027 39120,6950.248,96.108,573.851,570.376,0.0
55926.0,STARLINK-5921,PAYLOAD,2023-11-27 20:02:45,14.98325202,0.0002344,70.0017,224.4997,257.6059,102.4838,-7.788e-05,-1.022e-05,0.0,0 STARLINK-5921,1 55926U 23037N   23331.83525151 -.00001022  00000-0 -77880-4 0  9995,2 55926  70.0017 224.4997 0002344 257.6059 102.4838 14.98325202 39563,6950.208,96.107,573.702,570.444,0.0
55926.0,STARLINK-5921,PAYLOAD,2023-11-27 21:38:53,14.98330346,0.0002806,70.0006,224.3312,276.774,83.31,-0.00013044,-1.649e-05,0.0,0 STARLINK-5921,1 55926U 23037N   23331.90201048 -.00001649  00000-0 -13044-3 0  9995,2 55926  70.0006 224.3312 0002806 276.7740  83.3100 14.98330346 39231,6950.192,96.107,574.007,570.107,0.0
55926.0,STARLINK-5921,PAYLOAD,2023-11-28 02:27:17,14.98337269,0.0001958,70.0011,223.8256,280.6991,79.3948,3.6123e-05,3.38e-06,0.0,0 STARLINK-5921,1 55926U 23037N   23332.10228317  .00000338  00000-0  36123-4 0  9992,2 55926  70.0011 223.8256 0001958 280.6991  79.3948 14.98337269 39604,6950.17,96.107,573.396,570.675,0.0
55926.0,STARLINK-5921,PAYLOAD,2023-11-28 20:04:45,14.98321033,0.0002775,70.0006,221.9742,252.5357,107.5499,0.00026246,3.039e-05,0.0,0 STARLINK-5921,1 55926U 23037N   23332.83664287  .00003039  00000-0  26246-3 0  9997,2 55926  70.0006 221.9742 0002775 252.5357 107.5499 14.98321033 39718,6950.221,96.108,574.014,570.157,0.0
55926.0,STARLINK-5921,PAYLOAD,2023-11-29 02:29:17,14.9833302,0.0002655,70.0001,221.3001,254.3175,105.7691,0.00035818,4.184e-05,0.0,0 STARLINK-5921,1 55926U 23037N   23333.10367393  .00004184  00000-0  35818-3 0  9993,2 55926  70.0001 221.3001 0002655 254.3175 105.7691 14.98333020 39757,6950.184,96.107,573.894,570.203,0.0
55926.0,STARLINK-5921,PAYLOAD,2023-11-29 20:06:46,14.98334438,0.0002805,69.9994,219.4479,256.6891,103.3956,-2.8262e-05,-4.3e-06,0.0,0 STARLINK-5921,1 55926U 23037N   23333.83804253 -.00000430  00000-0 -28262-4 0  9992,2 55926  69.9994 219.4479 0002805 256.6891 103.3956 14.98334438 39863,6950.179,96.107,573.994,570.095,0.0
55926.0,STARLINK-5921,PAYLOAD,2023-11-30 20:08:48,14.98329687,0.0002658,70.0007,216.9232,267.2805,92.805,-5.6881e-05,-7.72e-06,0.0,0 STARLINK-5921,1 55926U 23037N   23334.83944471 -.00000772  00000-0 -56881-4 0  9997,2 55926  70.0007 216.9232 0002658 267.2805  92.8050 14.98329687 40015,6950.194,96.107,573.906,570.211,0.0
55926.0,STARLINK-5921,PAYLOAD,2023-12-01 20:10:48,14.98338606,0.0002643,69.9992,214.3962,272.1193,87.9663,-1.634e-05,-2.88e-06,0.0,0 STARLINK-5921,1 55926U 23037N   23335.84083642 -.00000288  00000-0 -16340-4 0  9991,2 55926  69.9992 214.3962 0002643 272.1193  87.9663 14.98338606 40168,6950.166,96.106,573.868,570.194,0.0
55926.0,STARLINK-5921,PAYLOAD,2023-12-01 21:46:55,14.98345718,0.0002601,69.9991,214.2305,258.754,101.3327,0.00011462,1.275e-05,0.0,0 STARLINK-5921,1 55926U 23037N   23335.90758796  .00001275  00000-0  11462-3 0  9991,2 55926  69.9991 214.2305 0002601 258.7540 101.3327 14.98345718 39839,6950.144,96.106,573.817,570.202,0.0
55926.0,STARLINK-5921,PAYLOAD,2023-12-02 00:59:14,14.98308767,0.000245,69.9999,213.8939,266.3704,93.7175,-0.00018482,-2.296e-05,0.0,0 STARLINK-5921,1 55926U 23037N   23336.04113678 -.00002296  00000-0 -18482-3 0  9996,2 55926  69.9999 213.8939 0002450 266.3704  93.7175 14.98308767 40193,6950.259,96.108,573.826,570.421,0.0
55926.0,STARLINK-5921,PAYLOAD,2023-12-02 02:35:19,14.98348749,0.0002425,69.9995,213.7256,275.3776,84.7106,0.00024399,2.821e-05,0.0,0 STARLINK-5921,1 55926U 23037N   23336.10786293  .00002821  00000-0  24399-3 0  9998,2 55926  69.9995 213.7256 0002425 275.3776  84.7106 14.98348749 40201,6950.135,96.106,573.685,570.315,0.0
55926.0,STARLINK-5921,PAYLOAD,2023-12-02 20:12:49,14.98323021,0.0002979,69.9986,211.8742,264.192,95.89,-5.4399e-05,-7.42e-06,0.0,0 STARLINK-5921,1 55926U 23037N   23336.84224449 -.00000742  00000-0 -54399-4 0  9995,2 55926  69.9986 211.8742 0002979 264.1920  95.8900 14.98323021 40314,6950.214,96.107,574.15,570.009,0.0
55926.0,STARLINK-5921,PAYLOAD,2023-12-02 21:48:58,14.98317631,0.0002518,69.9997,211.7058,248.7224,111.3667,-7.8107e-05,-1.024e-05,0.0,0 STARLINK-5921,1 55926U 23037N   23336.90900837 -.00001024  00000-0 -78107-4 0  9991,2 55926  69.9997 211.7058 0002518 248.7224 111.3667 14.98317631 39984,6950.231,96.108,573.846,570.346,0.0
55926.0,STARLINK-5921,PAYLOAD,2023-12-03 01:01:14,14.9831768,0.0002576,69.9995,211.3689,252.4511,107.6367,-8.0822e-05,-1.057e-05,0.0,0 STARLINK-5921,1 55926U 23037N   23337.04252931 -.00001057  00000-0 -80822-4 0  9995,2 55926  69.9995 211.3689 0002576 252.4511 107.6367 14.98317680 40007,6950.231,96.108,573.886,570.306,0.0
55926.0,STARLINK-5921,PAYLOAD,2023-12-03 20:14:51,14.9832899,0.0002597,69.9991,209.3488,252.8355,107.252,-0.00017099,-2.132e-05,0.0,0 STARLINK-5921,1 55926U 23037N   23337.84364819 -.00002132  00000-0 -17099-3 0  9992,2 55926  69.9991 209.3488 0002597 252.8355 107.2520 14.98328990 40463,6950.196,96.107,573.866,570.256,0.0
55926.0,STARLINK-5921,PAYLOAD,2023-12-04 01:03:15,14.98327887,0.0002825,69.9991,208.844,257.7329,102.3513,-0.00016331,-2.041e-05,0.0,0 STARLINK-5921,1 55926U 23037N   23338.04392826 -.00002041  00000-0 -16331-3 0  9991,2 55926  69.9991 208.8440 0002825 257.7329 102.3513 14.98327887 40152,6950.199,96.107,574.028,570.101,0.0
55926.0,STARLINK-5921,PAYLOAD,2023-12-04 15:28:27,14.98323059,0.0002878,69.9979,207.328,261.8929,98.1903,0.00010098,1.112e-05,0.0,0 STARLINK-5921,1 55926U 23037N   23338.64476479  .00001112  00000-0  10098-3 0  9994,2 55926  69.9979 207.3280 0002878 261.8929  98.1903 14.98323059 40246,6950.214,96.107,574.08,570.079,0.0
55926.0,STARLINK-5921,PAYLOAD,2023-12-05 01:05:15,14.9833018,0.0002731,69.9982,206.318,260.4883,99.5967,0.00016674,1.897e-05,0.0,0 STARLINK-5921,1 55926U 23037N   23339.04531968  .00001897  00000-0  16674-3 0  9990,2 55926  69.9982 206.3180 0002731 260.4883  99.5967 14.98330180 40642,6950.192,96.107,573.955,570.159,0.0
55926.0,STARLINK-5921,PAYLOAD,2023-12-06 01:07:16,14.98333072,0.0002756,69.9983,203.7932,266.8475,93.2369,0.0001189,1.326e-05,0.0,0 STARLINK-5921,1 55926U 23037N   23340.04671863  .00001326  00000-0  11890-3 0  9993,2 55926  69.9983 203.7932 0002756 266.8475  93.2369 14.98333072 40799,6950.183,96.107,573.964,570.133,0.0
55926.0,STARLINK-5921,PAYLOAD,2023-12-06 21:57:01,14.98334301,0.0002667,69.9989,201.6059,261.1603,98.9254,-5.1352e-05,-7.06e-06,0.0,0 STARLINK-5921,1 55926U 23037N   23340.91459960 -.00000706  00000-0 -51352-4 0  9992,2 55926  69.9989 201.6059 0002667 261.1603  98.9254 14.98334301 40582,6950.18,96.107,573.898,570.191,0.0
55926.0,STARLINK-5921,PAYLOAD,2023-12-07 01:09:17,14.98333041,0.0002652,69.9985,201.2698,260.7669,99.3191,-6.0377e-05,-8.13e-06,0.0,0 STARLINK-5921,1 55926U 23037N   23341.04812057 -.00000813  00000-0 -60377-4 0  9993,2 55926  69.9985 201.2698 0002652 260.7669  99.3191 14.98333041 40949,6950.183,96.107,573.892,570.205,0.0
